SAR-LUPE 2              
1 31797U 07030A   26155.81556265  .00013561  00000+0  26132-3 0  9996
2 31797  98.1029 258.7366 0010013 153.6989 206.4770 15.47959971 55026
SAPPHIRE                
1 39088U 13009C   26155.05544069  .00000126  00000+0  58949-4 0  9990
2 39088  98.4257 334.8234 0010031 290.2950  69.7158 14.35236900694697
PRAETORIAN SDA_602      
1 65565U 25203A   26155.66485390  .00000068  00000+0  50646-4 0  9997
2 65565  81.3040  22.3695 0005171 220.9572 139.1197 13.84341919 36961
PRAETORIAN SDA_603      
1 65566U 25203B   26155.10919244  .00000263  00000+0  22678-3 0  9997
2 65566  81.3051  22.7900 0008818 225.4084 134.6354 13.83904337 36891
PRAETORIAN SDA_604      
1 65567U 25203C   26155.12080703  .00000143  00000+0  12013-3 0  9998
2 65567  81.3062  23.1730 0004695 231.1882 128.8855 13.83046153 36871
PRAETORIAN SDA_605      
1 65568U 25203D   26155.66837463  .00000092  00000+0  72924-4 0  9992
2 65568  81.3026  22.3421 0007463 219.2330 140.8286 13.83433360 36963
PRAETORIAN SDA_606      
1 65569U 25203E   26155.65067939  .00000106  00000+0  85337-4 0  9993
2 65569  81.3062  22.5748 0005121 217.2361 142.8440 13.83406398 36953
PRAETORIAN SDA_607      
1 65570U 25203F   26155.66664907  .00000180  00000+0  15082-3 0  9995
2 65570  81.3049  22.2426 0008028 224.1418 135.9099 13.84283905 36972
PRAETORIAN SDA_608      
1 65571U 25203G   26155.13369963  .00000104  00000+0  83254-4 0  9995
2 65571  81.3015  22.8929 0005196 230.1372 129.9328 13.83815704 36884
PRAETORIAN SDA_609      
1 65572U 25203H   26155.64868164  .00000204  00000+0  17208-3 0  9995
2 65572  81.3058  22.4025 0006135 221.1977 138.8717 13.84284044 36968
PRAETORIAN SDA_610      
1 65573U 25203J   26155.11378525  .00000068  00000+0  50459-4 0  9999
2 65573  81.3016  22.8698 0005862 227.0537 133.0128 13.83850959 36883
PRAETORIAN SDA_611      
1 65574U 25203K   26155.10944072  .00000201  00000+0  17269-3 0  9995
2 65574  81.3013  23.0290 0004767 235.8761 124.1943 13.83308619 36877
PRAETORIAN SDA_612      
1 65575U 25203L   26155.11537120  .00000169  00000+0  13939-3 0  9992
2 65575  81.3037  22.6417 0008509 224.5575 135.4899 13.85037705 36902
PRAETORIAN SDA_613      
1 65576U 25203M   26155.11104525  .00000074  00000+0  57548-4 0  9992
2 65576  81.3009  23.0140 0004952 222.1837 137.8938 13.82764143 36879
PRAETORIAN SDA_614      
1 65577U 25203N   26155.68011602  .00000104  00000+0  81947-4 0  9992
2 65577  81.3023  22.1927 0006415 219.9684 140.1002 13.84777657 36986
PRAETORIAN SDA_615      
1 65578U 25203P   26155.65391404  .00000190  00000+0  15907-3 0  9998
2 65578  81.3032  22.1730 0008318 221.4073 138.6454 13.84435437 36972
PRAETORIAN SDA_616      
1 65579U 25203Q   26155.10826356  .00000219  00000+0  18904-3 0  9990
2 65579  81.3070  23.1669 0004543 234.7932 125.2799 13.83266564 36879
PRAETORIAN SDA_617      
1 65580U 25203R   26155.12875514  .00000121  00000+0  99525-4 0  9995
2 65580  81.3046  22.9798 0006649 222.1078 137.9568 13.83149829 36884
PRAETORIAN SDA_618      
1 65581U 25203S   26155.11626052  .00000199  00000+0  16649-3 0  9996
2 65581  81.3028  22.6060 0008980 226.1688 133.8727 13.84668998 36904
PRAETORIAN SDA_619      
1 65582U 25203T   26155.65018211 -.00002293  00000+0 -20818-2 0  9999
2 65582  81.3052  22.3887 0007557 221.7642 138.2939 13.83817426 37597
PRAETORIAN SDA_620      
1 65583U 25203U   26155.67647582  .00000192  00000+0  16341-3 0  9992
2 65583  81.3036  22.3825 0006955 216.7547 143.3133 13.83617378 36968
PRAETORIAN SDA_621      
1 65584U 25203V   26155.65191811  .00000109  00000+0  87311-4 0  9994
2 65584  81.3029  22.3281 0006732 214.3356 145.7366 13.83800240 36968
PRAETORIAN SDA_601      
1 65585U 25203W   26155.11045211  .00000132  00000+0  10956-3 0  9994
2 65585  81.3045  23.1116 0004652 236.5159 123.5553 13.83166837 36878
